{
  "links" : {
    "next" : "https://api.nasa.gov/neo/rest/v1/feed?start_date=2013-02-23&end_date=2013-02-23&detailed=true&api_key=t0TVs3DtDT2H8Oy2Zy8m2eVrNsAVKAexjcZXUckd",
    "prev" : "https://api.nasa.gov/neo/rest/v1/feed?start_date=2013-02-21&end_date=2013-02-21&detailed=true&api_key=t0TVs3DtDT2H8Oy2Zy8m2eVrNsAVKAexjcZXUckd",
    "self" : "https://api.nasa.gov/neo/rest/v1/feed?start_date=2013-02-22&end_date=2013-02-22&detailed=true&api_key=t0TVs3DtDT2H8Oy2Zy8m2eVrNsAVKAexjcZXUckd"
  },
  "element_count" : 6,
  "near_earth_objects" : {
    "2013-02-22" : [ {
      "links" : {
        "self" : "https://api.nasa.gov/neo/rest/v1/neo/3632238?api_key=t0TVs3DtDT2H8Oy2Zy8m2eVrNsAVKAexjcZXUckd"
      },
      "neo_reference_id" : "3632238",
      "name" : "(2013 EK89)",
      "nasa_jpl_url" : "http://ssd.jpl.nasa.gov/sbdb.cgi?sstr=3632238",
      "absolute_magnitude_h" : 21.6,
      "estimated_diameter" : {
        "kilometers" : {
          "estimated_diameter_min" : 0.1272198785,
          "estimated_diameter_max" : 0.2844722965
        },
        "meters" : {
          "estimated_diameter_min" : 127.2198785394,
          "estimated_diameter_max" : 284.4722965033
        },
        "miles" : {
          "estimated_diameter_min" : 0.0790507431,
          "estimated_diameter_max" : 0.1767628354
        },
        "feet" : {
          "estimated_diameter_min" : 417.3880663071,
          "estimated_diameter_max" : 933.3080892598
        }
      },
      "is_potentially_hazardous_asteroid" : false,
      "close_approach_data" : [ {
        "close_approach_date" : "2013-02-22",
        "epoch_date_close_approach" : 1361520000000,
        "relative_velocity" : {
          "kilometers_per_second" : "7.6030625716",
          "kilometers_per_hour" : "27371.0252579024",
          "miles_per_hour" : "17007.2906665005"
        },
        "miss_distance" : {
          "astronomical" : "0.2624418805",
          "lunar" : "102.0898895264",
          "kilometers" : "39260744",
          "miles" : "24395496"
        },
        "orbiting_body" : "Earth"
      } ],
      "orbital_data" : {
        "orbit_id" : "15",
        "orbit_determination_date" : "2017-04-06 08:46:27",
        "orbit_uncertainty" : "6",
        "minimum_orbit_intersection" : ".215895",
        "jupiter_tisserand_invariant" : "2.920",
        "epoch_osculation" : "2458000.5",
        "eccentricity" : ".6067245721411839",
        "semi_major_axis" : "2.98694011225844",
        "inclination" : "12.16090898007418",
        "ascending_node_longitude" : "178.8002207109697",
        "orbital_period" : "1885.550635215621",
        "perihelion_distance" : "1.174690150637098",
        "perihelion_argument" : "324.6591107674793",
        "aphelion_distance" : "4.799190073879782",
        "perihelion_time" : "2458214.053744136074",
        "mean_anomaly" : "319.2271103978095",
        "mean_motion" : ".1909256602694377",
        "equinox" : "J2000"
      }
    }, {
      "links" : {
        "self" : "https://api.nasa.gov/neo/rest/v1/neo/3646736?api_key=t0TVs3DtDT2H8Oy2Zy8m2eVrNsAVKAexjcZXUckd"
      },
      "neo_reference_id" : "3646736",
      "name" : "(2013 QF11)",
      "nasa_jpl_url" : "http://ssd.jpl.nasa.gov/sbdb.cgi?sstr=3646736",
      "absolute_magnitude_h" : 24.6,
      "estimated_diameter" : {
        "kilometers" : {
          "estimated_diameter_min" : 0.0319561887,
          "estimated_diameter_max" : 0.0714562102
        },
        "meters" : {
          "estimated_diameter_min" : 31.9561886721,
          "estimated_diameter_max" : 71.4562101727
        },
        "miles" : {
          "estimated_diameter_min" : 0.0198566489,
          "estimated_diameter_max" : 0.0444008168
        },
        "feet" : {
          "estimated_diameter_min" : 104.8431420431,
          "estimated_diameter_max" : 234.436392583
        }
      },
      "is_potentially_hazardous_asteroid" : false,
      "close_approach_data" : [ {
        "close_approach_date" : "2013-02-22",
        "epoch_date_close_approach" : 1361520000000,
        "relative_velocity" : {
          "kilometers_per_second" : "12.1162943773",
          "kilometers_per_hour" : "43618.6597581101",
          "miles_per_hour" : "27102.9388924768"
        },
        "miss_distance" : {
          "astronomical" : "0.3408728456",
          "lunar" : "132.5995330811",
          "kilometers" : "50993852",
          "miles" : "31686112"
        },
        "orbiting_body" : "Earth"
      } ],
      "orbital_data" : {
        "orbit_id" : "8",
        "orbit_determination_date" : "2017-04-06 08:45:02",
        "orbit_uncertainty" : "7",
        "minimum_orbit_intersection" : ".0358145",
        "jupiter_tisserand_invariant" : "5.216",
        "epoch_osculation" : "2458000.5",
        "eccentricity" : ".2360977075264952",
        "semi_major_axis" : "1.193575069468861",
        "inclination" : "23.1041490092898",
        "ascending_node_longitude" : "334.3334118418277",
        "orbital_period" : "476.291724049336",
        "perihelion_distance" : ".9117747318064857",
        "perihelion_argument" : "287.7343887159299",
        "aphelion_distance" : "1.475375407131236",
        "perihelion_time" : "2457897.195007527035",
        "mean_anomaly" : "78.08197248124975",
        "mean_motion" : ".7558392930688628",
        "equinox" : "J2000"
      }
    }, {
      "links" : {
        "self" : "https://api.nasa.gov/neo/rest/v1/neo/3729541?api_key=t0TVs3DtDT2H8Oy2Zy8m2eVrNsAVKAexjcZXUckd"
      },
      "neo_reference_id" : "3729541",
      "name" : "(2015 TD144)",
      "nasa_jpl_url" : "http://ssd.jpl.nasa.gov/sbdb.cgi?sstr=3729541",
      "absolute_magnitude_h" : 22.6,
      "estimated_diameter" : {
        "kilometers" : {
          "estimated_diameter_min" : 0.0802703167,
          "estimated_diameter_max" : 0.1794898848
        },
        "meters" : {
          "estimated_diameter_min" : 80.2703167283,
          "estimated_diameter_max" : 179.4898847799
        },
        "miles" : {
          "estimated_diameter_min" : 0.049877647,
          "estimated_diameter_max" : 0.1115298092
        },
        "feet" : {
          "estimated_diameter_min" : 263.3540659348,
          "estimated_diameter_max" : 588.8775935812
        }
      },
      "is_potentially_hazardous_asteroid" : false,
      "close_approach_data" : [ {
        "close_approach_date" : "2013-02-22",
        "epoch_date_close_approach" : 1361520000000,
        "relative_velocity" : {
          "kilometers_per_second" : "24.5934823194",
          "kilometers_per_hour" : "88536.536349727",
          "miles_per_hour" : "55013.1606001956"
        },
        "miss_distance" : {
          "astronomical" : "0.4852072617",
          "lunar" : "188.7456207275",
          "kilometers" : "72585976",
          "miles" : "45102832"
        },
        "orbiting_body" : "Earth"
      } ],
      "orbital_data" : {
        "orbit_id" : "16",
        "orbit_determination_date" : "2017-04-06 08:31:29",
        "orbit_uncertainty" : "3",
        "minimum_orbit_intersection" : ".00131448",
        "jupiter_tisserand_invariant" : "3.425",
        "epoch_osculation" : "2458000.5",
        "eccentricity" : ".7578231914814201",
        "semi_major_axis" : "1.986593089281844",
        "inclination" : "1.645734558882875",
        "ascending_node_longitude" : "25.76824879845763",
        "orbital_period" : "1022.731912234545",
        "perihelion_distance" : ".4811067741873433",
        "perihelion_argument" : "104.0578245887495",
        "aphelion_distance" : "3.492079404376345",
        "perihelion_time" : "2458384.504979162087",
        "mean_anomaly" : "224.8308605171909",
        "mean_motion" : ".3519984031919408",
        "equinox" : "J2000"
      }
    } ]
  }
}